{
  "type": "FeatureCollection",
  "features": [
    {
      "type": "Feature",
      "properties": {
        "norad_id": 66366,
        "name": "STARLINK-35845",
        "group": "last-30-days",
        "lat": 48.82925169315853,
        "lon": 9.629844998589363,
        "alt_km": 398.4266712314693,
        "timestamp": "2025-12-05T14:45:14.099861+00:00",
        "meta_object_name": "STARLINK-35845",
        "meta_object_id": "2025-254U",
        "meta_epoch": "2025-12-04T18:00:02.000160",
        "meta_mean_motion": 15.57500265,
        "meta_eccentricity": 0.00012,
        "meta_inclination": 53.1592,
        "meta_ra_of_asc_node": 314.7885,
        "meta_arg_of_pericenter": 106.6885,
        "meta_mean_anomaly": 158.2406,
        "meta_ephemeris_type": 0,
        "meta_classification_type": "U",
        "meta_norad_cat_id": 66366,
        "meta_element_set_no": 999,
        "meta_rev_at_epoch": 563,
        "meta_bstar": -0.031086,
        "meta_mean_motion_dot": -0.02075825,
        "meta_mean_motion_ddot": 0,
        "tle_line1": "1 66366U 25254U   25338.75002315 -.02075825  00000+0 -31086-1 0  9998",
        "tle_line2": "2 66366  53.1592 314.7885 0001200 106.6885 158.2406 15.57500265  5633"
      },
      "geometry": {
        "type": "Point",
        "coordinates": [
          9.629844998589363,
          48.82925169315853
        ]
      }
    },
    {
      "type": "Feature",
      "properties": {
        "norad_id": 66367,
        "name": "STARLINK-35846",
        "group": "last-30-days",
        "lat": 50.28332726259771,
        "lon": 15.09947495115182,
        "alt_km": 398.20862897493225,
        "timestamp": "2025-12-05T14:45:14.099871+00:00",
        "meta_object_name": "STARLINK-35846",
        "meta_object_id": "2025-254V",
        "meta_epoch": "2025-12-04T18:00:02.000160",
        "meta_mean_motion": 15.57504409,
        "meta_eccentricity": 0.0001157,
        "meta_inclination": 53.1592,
        "meta_ra_of_asc_node": 314.7803,
        "meta_arg_of_pericenter": 103.0747,
        "meta_mean_anomaly": 165.6853,
        "meta_ephemeris_type": 0,
        "meta_classification_type": "U",
        "meta_norad_cat_id": 66367,
        "meta_element_set_no": 999,
        "meta_rev_at_epoch": 559,
        "meta_bstar": -0.031154,
        "meta_mean_motion_dot": -0.02080159,
        "meta_mean_motion_ddot": 0,
        "tle_line1": "1 66367U 25254V   25338.75002315 -.02080159  00000+0 -31154-1 0  9991",
        "tle_line2": "2 66367  53.1592 314.7803 0001157 103.0747 165.6853 15.57504409  5590"
      },
      "geometry": {
        "type": "Point",
        "coordinates": [
          15.09947495115182,
          50.28332726259771
        ]
      }
    },
    {
      "type": "Feature",
      "properties": {
        "norad_id": 66368,
        "name": "STARLINK-34861",
        "group": "last-30-days",
        "lat": -49.331921021871175,
        "lon": -168.9789247216102,
        "alt_km": 350.1421199092174,
        "timestamp": "2025-12-05T14:45:14.099881+00:00",
        "meta_object_name": "STARLINK-34861",
        "meta_object_id": "2025-254W",
        "meta_epoch": "2025-12-04T10:16:14.023776",
        "meta_mean_motion": 15.74306271,
        "meta_eccentricity": 9.47e-05,
        "meta_inclination": 53.1568,
        "meta_ra_of_asc_node": 316.1388,
        "meta_arg_of_pericenter": 118.9457,
        "meta_mean_anomaly": 241.1658,
        "meta_ephemeris_type": 0,
        "meta_classification_type": "U",
        "meta_norad_cat_id": 66368,
        "meta_element_set_no": 999,
        "meta_rev_at_epoch": 437,
        "meta_bstar": 0.001534,
        "meta_mean_motion_dot": 0.00231487,
        "meta_mean_motion_ddot": 0,
        "tle_line1": "1 66368U 25254W   25338.42794009  .00231487  00000+0  15340-2 0  9992",
        "tle_line2": "2 66368  53.1568 316.1388 0000947 118.9457 241.1658 15.74306271  4371"
      },
      "geometry": {
        "type": "Point",
        "coordinates": [
          -168.9789247216102,
          -49.331921021871175
        ]
      }
    },
    {
      "type": "Feature",
      "properties": {
        "norad_id": 66369,
        "name": "STARLINK-35795",
        "group": "last-30-days",
        "lat": -49.303376300526914,
        "lon": -169.08140988695052,
        "alt_km": 348.62871716353493,
        "timestamp": "2025-12-05T14:45:14.099892+00:00",
        "meta_object_name": "STARLINK-35795",
        "meta_object_id": "2025-254X",
        "meta_epoch": "2025-12-04T02:39:36.815328",
        "meta_mean_motion": 15.74349696,
        "meta_eccentricity": 0.00030446,
        "meta_inclination": 53.1567,
        "meta_ra_of_asc_node": 317.7168,
        "meta_arg_of_pericenter": 147.1731,
        "meta_mean_anomaly": 212.9479,
        "meta_ephemeris_type": 0,
        "meta_classification_type": "U",
        "meta_norad_cat_id": 66369,
        "meta_element_set_no": 999,
        "meta_rev_at_epoch": 432,
        "meta_bstar": 0.0021458163,
        "meta_mean_motion_dot": 0.00328479,
        "meta_mean_motion_ddot": 0,
        "tle_line1": "1 66369U 25254X   25338.11084277  .00328479  00000+0  21458-2 0  9993",
        "tle_line2": "2 66369  53.1567 317.7168 0003044 147.1731 212.9479 15.74349696  4324"
      },
      "geometry": {
        "type": "Point",
        "coordinates": [
          -169.08140988695052,
          -49.303376300526914
        ]
      }
    },
    {
      "type": "Feature",
      "properties": {
        "norad_id": 66370,
        "name": "STARLINK-35824",
        "group": "last-30-days",
        "lat": -51.21960948170366,
        "lon": -160.82110206100648,
        "alt_km": 346.9647681780052,
        "timestamp": "2025-12-05T14:45:14.099902+00:00",
        "meta_object_name": "STARLINK-35824",
        "meta_object_id": "2025-254Y",
        "meta_epoch": "2025-12-04T02:38:39.081120",
        "meta_mean_motion": 15.74459234,
        "meta_eccentricity": 3.668e-05,
        "meta_inclination": 53.1568,
        "meta_ra_of_asc_node": 317.7129,
        "meta_arg_of_pericenter": 67.6917,
        "meta_mean_anomaly": 292.4142,
        "meta_ephemeris_type": 0,
        "meta_classification_type": "U",
        "meta_norad_cat_id": 66370,
        "meta_element_set_no": 999,
        "meta_rev_at_epoch": 432,
        "meta_bstar": 0.0031685267,
        "meta_mean_motion_dot": 0.00497732,
        "meta_mean_motion_ddot": 0,
        "tle_line1": "1 66370U 25254Y   25338.11017455  .00497732  00000+0  31685-2 0  9991",
        "tle_line2": "2 66370  53.1568 317.7129 0000366  67.6917 292.4142 15.74459234  4320"
      },
      "geometry": {
        "type": "Point",
        "coordinates": [
          -160.82110206100648,
          -51.21960948170366
        ]
      }
    },
    {
      "type": "Feature",
      "properties": {
        "norad_id": 66371,
        "name": "STARLINK-35804",
        "group": "last-30-days",
        "lat": -50.80501734751841,
        "lon": -162.9105632060302,
        "alt_km": 351.544312119815,
        "timestamp": "2025-12-05T14:45:14.099915+00:00",
        "meta_object_name": "STARLINK-35804",
        "meta_object_id": "2025-254Z",
        "meta_epoch": "2025-12-04T18:00:02.000160",
        "meta_mean_motion": 15.74014365,
        "meta_eccentricity": 0.0001171,
        "meta_inclination": 53.1576,
        "meta_ra_of_asc_node": 314.5283,
        "meta_arg_of_pericenter": 99.5152,
        "meta_mean_anomaly": 292.5899,
        "meta_ephemeris_type": 0,
        "meta_classification_type": "U",
        "meta_norad_cat_id": 66371,
        "meta_element_set_no": 999,
        "meta_rev_at_epoch": 563,
        "meta_bstar": 0.0018199,
        "meta_mean_motion_dot": 0.00272638,
        "meta_mean_motion_ddot": 0,
        "tle_line1": "1 66371U 25254Z   25338.75002315  .00272638  00000+0  18199-2 0  9992",
        "tle_line2": "2 66371  53.1576 314.5283 0001171  99.5152 292.5899 15.74014365  5633"
      },
      "geometry": {
        "type": "Point",
        "coordinates": [
          -162.9105632060302,
          -50.80501734751841
        ]
      }
    },
    {
      "type": "Feature",
      "properties": {
        "norad_id": 66372,
        "name": "STARLINK-35821",
        "group": "last-30-days",
        "lat": -51.213546995945606,
        "lon": -160.85279003846955,
        "alt_km": 348.85341493193937,
        "timestamp": "2025-12-05T14:45:14.099927+00:00",
        "meta_object_name": "STARLINK-35821",
        "meta_object_id": "2025-254AA",
        "meta_epoch": "2025-12-04T10:15:15.064416",
        "meta_mean_motion": 15.7441561,
        "meta_eccentricity": 0.0001567,
        "meta_inclination": 53.1569,
        "meta_ra_of_asc_node": 316.1358,
        "meta_arg_of_pericenter": 64.6576,
        "meta_mean_anomaly": 295.4606,
        "meta_ephemeris_type": 0,
        "meta_classification_type": "U",
        "meta_norad_cat_id": 66372,
        "meta_element_set_no": 999,
        "meta_rev_at_epoch": 437,
        "meta_bstar": 0.0030875,
        "meta_mean_motion_dot": 0.00483155,
        "meta_mean_motion_ddot": 0,
        "tle_line1": "1 66372U 25254AA  25338.42725769  .00483155  00000+0  30875-2 0  9995",
        "tle_line2": "2 66372  53.1569 316.1358 0001567  64.6576 295.4606 15.74415610  4375"
      },
      "geometry": {
        "type": "Point",
        "coordinates": [
          -160.85279003846955,
          -51.213546995945606
        ]
      }
    }
  ]
}